CCSDS_OMM_VERS = 2.0
CREATION_DATE  = 
ORIGINATOR     = 

OBJECT_NAME    = TRANSPORTER-15CM
OBJECT_ID      = 2025-276CM
CENTER_NAME    = EARTH
REF_FRAME      = TEME
TIME_SYSTEM    = UTC
MEAN_ELEMENT_THEORY = SGP/SGP4

EPOCH          = 2025-12-27T19:57:14.645664
MEAN_MOTION    = 15.17949746
ECCENTRICITY   = .0002292
INCLINATION    = 97.4394
RA_OF_ASC_NODE = 73.3443
ARG_OF_PERICENTER = 172.6246
MEAN_ANOMALY   = 187.5022

EPHEMERIS_TYPE = 0
CLASSIFICATION_TYPE = U
NORAD_CAT_ID   = 66749
ELEMENT_SET_NO = 999
REV_AT_EPOCH   = 441
BSTAR          = .59748E-3
MEAN_MOTION_DOT = .12075E-3
MEAN_MOTION_DDOT = 0

CCSDS_OMM_VERS = 2.0
CREATION_DATE  = 
ORIGINATOR     = 

OBJECT_NAME    = TRANSPORTER-15CN
OBJECT_ID      = 2025-276CN
CENTER_NAME    = EARTH
REF_FRAME      = TEME
TIME_SYSTEM    = UTC
MEAN_ELEMENT_THEORY = SGP/SGP4

EPOCH          = 2025-12-27T10:22:34.927680
MEAN_MOTION    = 15.17947240
ECCENTRICITY   = .0004328
INCLINATION    = 97.4386
RA_OF_ASC_NODE = 72.9732
ARG_OF_PERICENTER = 136.6328
MEAN_ANOMALY   = 223.5247

EPHEMERIS_TYPE = 0
CLASSIFICATION_TYPE = U
NORAD_CAT_ID   = 66750
ELEMENT_SET_NO = 999
REV_AT_EPOCH   = 435
BSTAR          = -.70297E-2
MEAN_MOTION_DOT = -.140011E-2
MEAN_MOTION_DDOT = 0

CCSDS_OMM_VERS = 2.0
CREATION_DATE  = 
ORIGINATOR     = 

OBJECT_NAME    = ICEYE-X58
OBJECT_ID      = 2025-276CP
CENTER_NAME    = EARTH
REF_FRAME      = TEME
TIME_SYSTEM    = UTC
MEAN_ELEMENT_THEORY = SGP/SGP4

EPOCH          = 2025-12-27T19:58:07.671072
MEAN_MOTION    = 15.17848088
ECCENTRICITY   = .0002784
INCLINATION    = 97.4406
RA_OF_ASC_NODE = 73.3524
ARG_OF_PERICENTER = 187.5655
MEAN_ANOMALY   = 172.5538

EPHEMERIS_TYPE = 0
CLASSIFICATION_TYPE = U
NORAD_CAT_ID   = 66751
ELEMENT_SET_NO = 999
REV_AT_EPOCH   = 441
BSTAR          = .34741E-3
MEAN_MOTION_DOT = .6968E-4
MEAN_MOTION_DDOT = 0

CCSDS_OMM_VERS = 2.0
CREATION_DATE  = 
ORIGINATOR     = 

OBJECT_NAME    = ICEYE-X59
OBJECT_ID      = 2025-276CQ
CENTER_NAME    = EARTH
REF_FRAME      = TEME
TIME_SYSTEM    = UTC
MEAN_ELEMENT_THEORY = SGP/SGP4

EPOCH          = 2025-12-27T20:03:26.328960
MEAN_MOTION    = 15.17657691
ECCENTRICITY   = .0002119
INCLINATION    = 97.4399
RA_OF_ASC_NODE = 73.3468
ARG_OF_PERICENTER = 212.1507
MEAN_ANOMALY   = 147.9598

EPHEMERIS_TYPE = 0
CLASSIFICATION_TYPE = U
NORAD_CAT_ID   = 66752
ELEMENT_SET_NO = 999
REV_AT_EPOCH   = 441
BSTAR          = .56723E-3
MEAN_MOTION_DOT = .11363E-3
MEAN_MOTION_DDOT = 0

CCSDS_OMM_VERS = 2.0
CREATION_DATE  = 
ORIGINATOR     = 

OBJECT_NAME    = ICEYE-X60
OBJECT_ID      = 2025-276CR
CENTER_NAME    = EARTH
REF_FRAME      = TEME
TIME_SYSTEM    = UTC
MEAN_ELEMENT_THEORY = SGP/SGP4

EPOCH          = 2025-12-27T18:34:55.757280
MEAN_MOTION    = 15.17435652
ECCENTRICITY   = .0001196
INCLINATION    = 97.4402
RA_OF_ASC_NODE = 73.2723
ARG_OF_PERICENTER = 241.2431
MEAN_ANOMALY   = 118.8683

EPHEMERIS_TYPE = 0
CLASSIFICATION_TYPE = U
NORAD_CAT_ID   = 66753
ELEMENT_SET_NO = 999
REV_AT_EPOCH   = 440
BSTAR          = .55137E-3
MEAN_MOTION_DOT = .10973E-3
MEAN_MOTION_DDOT = 0

CCSDS_OMM_VERS = 2.0
CREATION_DATE  = 
ORIGINATOR     = 

OBJECT_NAME    = ICEYE-X61
OBJECT_ID      = 2025-276CS
CENTER_NAME    = EARTH
REF_FRAME      = TEME
TIME_SYSTEM    = UTC
MEAN_ELEMENT_THEORY = SGP/SGP4

EPOCH          = 2025-12-27T19:56:40.230816
MEAN_MOTION    = 15.17900338
ECCENTRICITY   = .0002677
INCLINATION    = 97.4400
RA_OF_ASC_NODE = 73.3482
ARG_OF_PERICENTER = 175.4557
MEAN_ANOMALY   = 184.6702

EPHEMERIS_TYPE = 0
CLASSIFICATION_TYPE = U
NORAD_CAT_ID   = 66754
ELEMENT_SET_NO = 999
REV_AT_EPOCH   = 441
BSTAR          = .59464E-3
MEAN_MOTION_DOT = .12E-3
MEAN_MOTION_DDOT = 0

CCSDS_OMM_VERS = 2.0
CREATION_DATE  = 
ORIGINATOR     = 

OBJECT_NAME    = ICEYE-X62
OBJECT_ID      = 2025-276CT
CENTER_NAME    = EARTH
REF_FRAME      = TEME
TIME_SYSTEM    = UTC
MEAN_ELEMENT_THEORY = SGP/SGP4

EPOCH          = 2025-12-27T16:53:51.781056
MEAN_MOTION    = 15.17676862
ECCENTRICITY   = .0001412
INCLINATION    = 97.4399
RA_OF_ASC_NODE = 73.2121
ARG_OF_PERICENTER = 202.8960
MEAN_ANOMALY   = 157.2211

EPHEMERIS_TYPE = 0
CLASSIFICATION_TYPE = U
NORAD_CAT_ID   = 66755
ELEMENT_SET_NO = 999
REV_AT_EPOCH   = 439
BSTAR          = .67281E-3
MEAN_MOTION_DOT = .13502E-3
MEAN_MOTION_DDOT = 0

CCSDS_OMM_VERS = 2.0
CREATION_DATE  = 
ORIGINATOR     = 

OBJECT_NAME    = TRANSPORTER-15CU
OBJECT_ID      = 2025-276CU
CENTER_NAME    = EARTH
REF_FRAME      = TEME
TIME_SYSTEM    = UTC
MEAN_ELEMENT_THEORY = SGP/SGP4

EPOCH          = 2025-12-27T19:54:38.811168
MEAN_MOTION    = 15.18010399
ECCENTRICITY   = .0001915
INCLINATION    = 97.4407
RA_OF_ASC_NODE = 73.3541
ARG_OF_PERICENTER = 148.1556
MEAN_ANOMALY   = 211.9794

EPHEMERIS_TYPE = 0
CLASSIFICATION_TYPE = U
NORAD_CAT_ID   = 66756
ELEMENT_SET_NO = 999
REV_AT_EPOCH   = 441
BSTAR          = .59176E-3
MEAN_MOTION_DOT = .11979E-3
MEAN_MOTION_DDOT = 0

CCSDS_OMM_VERS = 2.0
CREATION_DATE  = 
ORIGINATOR     = 

OBJECT_NAME    = TRANSPORTER-15CV
OBJECT_ID      = 2025-276CV
CENTER_NAME    = EARTH
REF_FRAME      = TEME
TIME_SYSTEM    = UTC
MEAN_ELEMENT_THEORY = SGP/SGP4

EPOCH          = 2025-12-26T23:18:11.598048
MEAN_MOTION    = 15.17836762
ECCENTRICITY   = .00039586
INCLINATION    = 97.4382
RA_OF_ASC_NODE = 72.5157
ARG_OF_PERICENTER = 309.2672
MEAN_ANOMALY   = 50.8210

EPHEMERIS_TYPE = 0
CLASSIFICATION_TYPE = U
NORAD_CAT_ID   = 66757
ELEMENT_SET_NO = 999
REV_AT_EPOCH   = 428
BSTAR          = -.10277728E-1
MEAN_MOTION_DOT = -.202306E-2
MEAN_MOTION_DDOT = 0

CCSDS_OMM_VERS = 2.0
CREATION_DATE  = 
ORIGINATOR     = 

OBJECT_NAME    = TRANSPORTER-15CW
OBJECT_ID      = 2025-276CW
CENTER_NAME    = EARTH
REF_FRAME      = TEME
TIME_SYSTEM    = UTC
MEAN_ELEMENT_THEORY = SGP/SGP4

EPOCH          = 2025-12-27T19:51:37.520640
MEAN_MOTION    = 15.18147575
ECCENTRICITY   = .0001579
INCLINATION    = 97.4387
RA_OF_ASC_NODE = 73.3490
ARG_OF_PERICENTER = 132.9497
MEAN_ANOMALY   = 227.1870

EPHEMERIS_TYPE = 0
CLASSIFICATION_TYPE = U
NORAD_CAT_ID   = 66758
ELEMENT_SET_NO = 999
REV_AT_EPOCH   = 441
BSTAR          = .6678E-3
MEAN_MOTION_DOT = .13583E-3
MEAN_MOTION_DDOT = 0

CCSDS_OMM_VERS = 2.0
CREATION_DATE  = 
ORIGINATOR     = 

OBJECT_NAME    = TRANSPORTER-15CX
OBJECT_ID      = 2025-276CX
CENTER_NAME    = EARTH
REF_FRAME      = TEME
TIME_SYSTEM    = UTC
MEAN_ELEMENT_THEORY = SGP/SGP4

EPOCH          = 2025-12-27T16:38:45.847680
MEAN_MOTION    = 15.18298297
ECCENTRICITY   = .0001901
INCLINATION    = 97.4371
RA_OF_ASC_NODE = 73.2179
ARG_OF_PERICENTER = 130.5369
MEAN_ANOMALY   = 229.6031

EPHEMERIS_TYPE = 0
CLASSIFICATION_TYPE = U
NORAD_CAT_ID   = 66759
ELEMENT_SET_NO = 999
REV_AT_EPOCH   = 439
BSTAR          = .9822E-3
MEAN_MOTION_DOT = .20115E-3
MEAN_MOTION_DDOT = 0

CCSDS_OMM_VERS = 2.0
CREATION_DATE  = 
ORIGINATOR     = 

OBJECT_NAME    = TRANSPORTER-15CY
OBJECT_ID      = 2025-276CY
CENTER_NAME    = EARTH
REF_FRAME      = TEME
TIME_SYSTEM    = UTC
MEAN_ELEMENT_THEORY = SGP/SGP4

EPOCH          = 2025-12-27T19:48:10.793952
MEAN_MOTION    = 15.18251988
ECCENTRICITY   = .000174
INCLINATION    = 97.4392
RA_OF_ASC_NODE = 73.3541
ARG_OF_PERICENTER = 112.3855
MEAN_ANOMALY   = 247.7564

EPHEMERIS_TYPE = 0
CLASSIFICATION_TYPE = U
NORAD_CAT_ID   = 66760
ELEMENT_SET_NO = 999
REV_AT_EPOCH   = 441
BSTAR          = .43126E-3
MEAN_MOTION_DOT = .8769E-4
MEAN_MOTION_DDOT = 0

