TRANSPORTER-15CM        
1 66749U 25276CM  25361.83141951  .00012075  00000+0  59748-3 0  9993
2 66749  97.4394  73.3443 0002292 172.6246 187.5022 15.17949746  4414
TRANSPORTER-15CN        
1 66750U 25276CN  25361.43234870 -.00140011  00000+0 -70297-2 0  9999
2 66750  97.4386  72.9732 0004328 136.6328 223.5247 15.17947240  4356
ICEYE-X58               
1 66751U 25276CP  25361.83203323  .00006968  00000+0  34741-3 0  9998
2 66751  97.4406  73.3524 0002784 187.5655 172.5538 15.17848088  4419
ICEYE-X59               
1 66752U 25276CQ  25361.83572140  .00011363  00000+0  56723-3 0  9994
2 66752  97.4399  73.3468 0002119 212.1507 147.9598 15.17657691  4411
ICEYE-X60               
1 66753U 25276CR  25361.77425645  .00010973  00000+0  55137-3 0  9999
2 66753  97.4402  73.2723 0001196 241.2431 118.8683 15.17435652  4405
ICEYE-X61               
1 66754U 25276CS  25361.83102119  .00012000  00000+0  59464-3 0  9995
2 66754  97.4400  73.3482 0002677 175.4557 184.6702 15.17900338  4411
ICEYE-X62               
1 66755U 25276CT  25361.70407154  .00013502  00000+0  67281-3 0  9993
2 66755  97.4399  73.2121 0001412 202.8960 157.2211 15.17676862  4397
TRANSPORTER-15CU        
1 66756U 25276CU  25361.82961587  .00011979  00000+0  59176-3 0  9992
2 66756  97.4407  73.3541 0001915 148.1556 211.9794 15.18010399  4411
TRANSPORTER-15CV        
1 66757U 25276CV  25360.97096757 -.00202306  00000+0 -10278-1 0  9992
2 66757  97.4382  72.5157 0003958 309.2672  50.8210 15.17836762  4283
TRANSPORTER-15CW        
1 66758U 25276CW  25361.82751760  .00013583  00000+0  66780-3 0  9996
2 66758  97.4387  73.3490 0001579 132.9497 227.1870 15.18147575  4415
TRANSPORTER-15CX        
1 66759U 25276CX  25361.69358620  .00020115  00000+0  98220-3 0  9993
2 66759  97.4371  73.2179 0001901 130.5369 229.6031 15.18298297  4394
TRANSPORTER-15CY        
1 66760U 25276CY  25361.82512493  .00008769  00000+0  43126-3 0  9996
2 66760  97.4392  73.3541 0001740 112.3855 247.7564 15.18251988  4413
